start=new Date('2022-08-29T00:00:00.000Z').valueOf();
sats=[{"BSTAR":"-0.00215140000000","MEAN_ELEMENT_THEORY":"SGP4","RA_OF_ASC_NODE":"9.3133","TIME_SYSTEM":"UTC","EPHEMERIS_TYPE":"0","MEAN_MOTION":"15.02900069","PERIAPSIS":"556.586","FILE":"3549722","TLE_LINE1":"1 48879U 21059A   22240.91667824 -.00028793  00000-0 -21514-2 0  9992","APOAPSIS":"559.337","CENTER_NAME":"EARTH","MEAN_ANOMALY":"309.6610","GP_ID":"211183808","ECCENTRICITY":"0.00019830","MEAN_MOTION_DOT":"-0.00028793","SEMIMAJOR_AXIS":"6936.096","MEAN_MOTION_DDOT":"0.0000000000000","OBJECT_TYPE":"PAYLOAD","COUNTRY_CODE":"US","TLE_LINE2":"2 48879  97.5168   9.3133 0001983 120.5429 309.6610 15.02900069 65397","ELEMENT_SET_NO":"999","PERIOD":"95.815","RCS_SIZE":"LARGE","SITE":"AFETR","DECAY_DATE":null,"ARG_OF_PERICENTER":"120.5429","EPOCH":"2022-08-28T22:00:00.999936","CLASSIFICATION_TYPE":"U","OBJECT_NAME":"STARLINK-3003","LAUNCH_DATE":"2021-06-30","REF_FRAME":"TEME","REV_AT_EPOCH":"6539","NORAD_CAT_ID":"48879","OBJECT_ID":"2021-059A","INCLINATION":"97.5168"},{"NORAD_CAT_ID":"48880","REV_AT_EPOCH":"6539","OBJECT_ID":"2021-059B","INCLINATION":"97.5149","LAUNCH_DATE":"2021-06-30","REF_FRAME":"TEME","CLASSIFICATION_TYPE":"U","OBJECT_NAME":"STARLINK-3004","RCS_SIZE":"LARGE","PERIOD":"95.815","SITE":"AFETR","DECAY_DATE":null,"EPOCH":"2022-08-28T22:00:00.999936","ARG_OF_PERICENTER":"120.7847","OBJECT_TYPE":"PAYLOAD","COUNTRY_CODE":"US","MEAN_MOTION_DDOT":"0.0000000000000","TLE_LINE2":"2 48880  97.5149   9.3194 0001959 120.7847 318.6547 15.02898318 65396","ELEMENT_SET_NO":"999","GP_ID":"211183984","ECCENTRICITY":"0.00019590","SEMIMAJOR_AXIS":"6936.102","MEAN_MOTION_DOT":"-0.00029205","APOAPSIS":"559.325","TLE_LINE1":"1 48880U 21059B   22240.91667824 -.00029205  00000-0 -21825-2 0  9998","CENTER_NAME":"EARTH","MEAN_ANOMALY":"318.6547","RA_OF_ASC_NODE":"9.3194","BSTAR":"-0.00218250000000","MEAN_ELEMENT_THEORY":"SGP4","MEAN_MOTION":"15.02898318","EPHEMERIS_TYPE":"0","TIME_SYSTEM":"UTC","FILE":"3549733","PERIAPSIS":"556.608"},{"OBJECT_ID":"2021-059C","INCLINATION":"97.5147","REV_AT_EPOCH":"130","NORAD_CAT_ID":"48881","REF_FRAME":"TEME","LAUNCH_DATE":"2021-06-30","CLASSIFICATION_TYPE":"U","OBJECT_NAME":"STARLINK-3005","DECAY_DATE":null,"ARG_OF_PERICENTER":"123.6884","EPOCH":"2022-08-28T22:00:00.999936","PERIOD":"95.814","RCS_SIZE":"LARGE","SITE":"AFETR","ELEMENT_SET_NO":"999","MEAN_MOTION_DDOT":"0.0000000000000","OBJECT_TYPE":"PAYLOAD","COUNTRY_CODE":"US","TLE_LINE2":"2 48881  97.5147   9.3466 0002061 123.6884 338.8446 15.02906171  1305","ECCENTRICITY":"0.00020610","MEAN_MOTION_DOT":"-0.00029524","SEMIMAJOR_AXIS":"6936.077","GP_ID":"211211054","MEAN_ANOMALY":"338.8446","APOAPSIS":"559.372","TLE_LINE1":"1 48881U 21059C   22240.91667824 -.00029524  00000-0 -22060-2 0  9995","CENTER_NAME":"EARTH","PERIAPSIS":"556.513","FILE":"3550014","BSTAR":"-0.00220600000000","MEAN_ELEMENT_THEORY":"SGP4","RA_OF_ASC_NODE":"9.3466","TIME_SYSTEM":"UTC","EPHEMERIS_TYPE":"0","MEAN_MOTION":"15.02906171"},{"OBJECT_NAME":"STARLINK-3096","CLASSIFICATION_TYPE":"U","SITE":"AFWTR","RCS_SIZE":"LARGE","PERIOD":"96.107","EPOCH":"2022-08-28T13:24:29.819808","ARG_OF_PERICENTER":"251.7580","DECAY_DATE":null,"NORAD_CAT_ID":"49131","REV_AT_EPOCH":"5386","INCLINATION":"69.9991","OBJECT_ID":"2021-082B","LAUNCH_DATE":"2021-09-14","REF_FRAME":"TEME","CENTER_NAME":"EARTH","APOAPSIS":"574.349","TLE_LINE1":"1 49131U 21082B   22240.55867847  .00000483  00000-0  48299-4 0  9992","MEAN_ANOMALY":"108.3222","MEAN_MOTION":"14.98325970","EPHEMERIS_TYPE":"0","TIME_SYSTEM":"UTC","RA_OF_ASC_NODE":"264.7967","MEAN_ELEMENT_THEORY":"SGP4","BSTAR":"0.00004829900000","PERIAPSIS":"569.792","FILE":"3550014","TLE_LINE2":"2 49131  69.9991 264.7967 0003278 251.7580 108.3222 14.98325970 53860","COUNTRY_CODE":"US","OBJECT_TYPE":"PAYLOAD","MEAN_MOTION_DDOT":"0.0000000000000","ELEMENT_SET_NO":"999","GP_ID":"211214584","SEMIMAJOR_AXIS":"6950.205","MEAN_MOTION_DOT":"0.00000483","ECCENTRICITY":"0.00032780"},{"PERIOD":"96.107","RCS_SIZE":"LARGE","SITE":"AFWTR","DECAY_DATE":null,"ARG_OF_PERICENTER":"254.4447","EPOCH":"2022-08-28T15:47:48.454080","CLASSIFICATION_TYPE":"U","OBJECT_NAME":"STARLINK-3090","LAUNCH_DATE":"2021-09-14","REF_FRAME":"TEME","REV_AT_EPOCH":"5289","NORAD_CAT_ID":"49132","OBJECT_ID":"2021-082C","INCLINATION":"69.9990","MEAN_ELEMENT_THEORY":"SGP4","BSTAR":"-0.00002055900000","RA_OF_ASC_NODE":"304.5441","EPHEMERIS_TYPE":"0","TIME_SYSTEM":"UTC","MEAN_MOTION":"14.98335751","FILE":"3550014","PERIAPSIS":"569.690","APOAPSIS":"574.390","TLE_LINE1":"1 49132U 21082C   22240.65819970 -.00000338  00000-0 -20559-4 0  9998","CENTER_NAME":"EARTH","MEAN_ANOMALY":"105.6339","GP_ID":"211213336","ECCENTRICITY":"0.00033810","MEAN_MOTION_DOT":"-0.00000338","SEMIMAJOR_AXIS":"6950.175","MEAN_MOTION_DDOT":"0.0000000000000","OBJECT_TYPE":"PAYLOAD","COUNTRY_CODE":"US","TLE_LINE2":"2 49132  69.9990 304.5441 0003381 254.4447 105.6339 14.98335751 52896","ELEMENT_SET_NO":"999"},{"SITE":"AFWTR","RCS_SIZE":"LARGE","PERIOD":"96.106","EPOCH":"2022-08-28T15:40:56.469504","ARG_OF_PERICENTER":"248.3783","DECAY_DATE":null,"OBJECT_NAME":"STARLINK-3077","CLASSIFICATION_TYPE":"U","LAUNCH_DATE":"2021-09-14","REF_FRAME":"TEME","NORAD_CAT_ID":"49133","REV_AT_EPOCH":"5289","INCLINATION":"69.9997","OBJECT_ID":"2021-082D","MEAN_MOTION":"14.98338199","TIME_SYSTEM":"UTC","EPHEMERIS_TYPE":"0","RA_OF_ASC_NODE":"304.5709","BSTAR":"0.00012823000000","MEAN_ELEMENT_THEORY":"SGP4","FILE":"3550014","PERIAPSIS":"569.717","CENTER_NAME":"EARTH","APOAPSIS":"574.348","TLE_LINE1":"1 49133U 21082D   22240.65343136  .00001438  00000-0  12823-3 0  9999","MEAN_ANOMALY":"111.7021","GP_ID":"211213586","SEMIMAJOR_AXIS":"6950.168","MEAN_MOTION_DOT":"0.00001438","ECCENTRICITY":"0.00033310","TLE_LINE2":"2 49133  69.9997 304.5709 0003331 248.3783 111.7021 14.98338199 52896","OBJECT_TYPE":"PAYLOAD","COUNTRY_CODE":"US","MEAN_MOTION_DDOT":"0.0000000000000","ELEMENT_SET_NO":"999"},{"MEAN_MOTION_DOT":"-0.00000561","SEMIMAJOR_AXIS":"6950.182","ECCENTRICITY":"0.00034260","GP_ID":"211213837","ELEMENT_SET_NO":"999","TLE_LINE2":"2 49134  70.0007 304.7545 0003426 258.1048 101.9727 14.98333498 54084","MEAN_MOTION_DDOT":"0.0000000000000","OBJECT_TYPE":"PAYLOAD","COUNTRY_CODE":"US","PERIAPSIS":"569.666","FILE":"3550014","EPHEMERIS_TYPE":"0","TIME_SYSTEM":"UTC","MEAN_MOTION":"14.98333498","BSTAR":"-0.00003920900000","MEAN_ELEMENT_THEORY":"SGP4","RA_OF_ASC_NODE":"304.7545","MEAN_ANOMALY":"101.9727","CENTER_NAME":"EARTH","APOAPSIS":"574.428","TLE_LINE1":"1 49134U 21082E   22240.58190463 -.00000561  00000-0 -39209-4 0  9991","REF_FRAME":"TEME","LAUNCH_DATE":"2021-09-14","INCLINATION":"70.0007","OBJECT_ID":"2021-082E","REV_AT_EPOCH":"5408","NORAD_CAT_ID":"49134","ARG_OF_PERICENTER":"258.1048","EPOCH":"2022-08-28T13:57:56.560032","DECAY_DATE":null,"SITE":"AFWTR","PERIOD":"96.107","RCS_SIZE":"LARGE","OBJECT_NAME":"STARLINK-3078","CLASSIFICATION_TYPE":"U"},{"ECCENTRICITY":"0.00031490","SEMIMAJOR_AXIS":"6955.214","MEAN_MOTION_DOT":"0.00000472","GP_ID":"211214084","ELEMENT_SET_NO":"999","COUNTRY_CODE":"US","OBJECT_TYPE":"PAYLOAD","MEAN_MOTION_DDOT":"0.0000000000000","TLE_LINE2":"2 49135  69.9987 264.4888 0003149 262.0146  98.0655 14.96707835 53887","FILE":"3550014","PERIAPSIS":"574.889","RA_OF_ASC_NODE":"264.4888","BSTAR":"0.00004926400000","MEAN_ELEMENT_THEORY":"SGP4","MEAN_MOTION":"14.96707835","TIME_SYSTEM":"UTC","EPHEMERIS_TYPE":"0","MEAN_ANOMALY":"98.0655","APOAPSIS":"579.269","TLE_LINE1":"1 49135U 21082F   22240.58043504  .00000472  00000-0  49264-4 0  9996","CENTER_NAME":"EARTH","REF_FRAME":"TEME","LAUNCH_DATE":"2021-09-14","OBJECT_ID":"2021-082F","INCLINATION":"69.9987","NORAD_CAT_ID":"49135","REV_AT_EPOCH":"5388","DECAY_DATE":null,"EPOCH":"2022-08-28T13:55:49.587456","ARG_OF_PERICENTER":"262.0146","RCS_SIZE":"LARGE","PERIOD":"96.211","SITE":"AFWTR","CLASSIFICATION_TYPE":"U","OBJECT_NAME":"STARLINK-3073"},{"GP_ID":"211212836","MEAN_MOTION_DOT":"0.00107303","SEMIMAJOR_AXIS":"6952.462","ECCENTRICITY":"0.00038860","TLE_LINE2":"2 49136  69.9988 284.3175 0003886 257.5562 102.5162 14.97596459 53410","MEAN_MOTION_DDOT":"0.0000000000000","OBJECT_TYPE":"PAYLOAD","COUNTRY_CODE":"US","ELEMENT_SET_NO":"999","EPHEMERIS_TYPE":"0","TIME_SYSTEM":"UTC","MEAN_MOTION":"14.97596459","MEAN_ELEMENT_THEORY":"SGP4","BSTAR":"0.00903260000000","RA_OF_ASC_NODE":"284.3175","PERIAPSIS":"571.626","FILE":"3550014","CENTER_NAME":"EARTH","APOAPSIS":"577.029","TLE_LINE1":"1 49136U 21082G   22240.74970958  .00107303  00000-0  90326-2 0  9991","MEAN_ANOMALY":"102.5162","LAUNCH_DATE":"2021-09-14","REF_FRAME":"TEME","REV_AT_EPOCH":"5341","NORAD_CAT_ID":"49136","INCLINATION":"69.9988","OBJECT_ID":"2021-082G","SITE":"AFWTR","PERIOD":"96.154","RCS_SIZE":"LARGE","ARG_OF_PERICENTER":"257.5562","EPOCH":"2022-08-28T17:59:34.907712","DECAY_DATE":null,"OBJECT_NAME":"STARLINK-3084","CLASSIFICATION_TYPE":"U"},{"ARG_OF_PERICENTER":"247.3541","EPOCH":"2022-08-28T21:05:36.557376","DECAY_DATE":null,"SITE":"AFWTR","PERIOD":"96.129","RCS_SIZE":"LARGE","OBJECT_NAME":"STARLINK-3055","CLASSIFICATION_TYPE":"U","REF_FRAME":"TEME","LAUNCH_DATE":"2021-09-14","INCLINATION":"69.9999","OBJECT_ID":"2021-082H","REV_AT_EPOCH":"5342","NORAD_CAT_ID":"49137","FILE":"3550014","PERIAPSIS":"570.105","TIME_SYSTEM":"UTC","EPHEMERIS_TYPE":"0","MEAN_MOTION":"14.97992037","BSTAR":"0.00564140000000","MEAN_ELEMENT_THEORY":"SGP4","RA_OF_ASC_NODE":"284.0054","MEAN_ANOMALY":"112.7162","CENTER_NAME":"EARTH","TLE_LINE1":"1 49137U 21082H   22240.87889534  .00067284  00000-0  56414-2 0  9998","APOAPSIS":"576.101","MEAN_MOTION_DOT":"0.00067284","SEMIMAJOR_AXIS":"6951.238","ECCENTRICITY":"0.00043130","GP_ID":"211213086","ELEMENT_SET_NO":"999","TLE_LINE2":"2 49137  69.9999 284.0054 0004313 247.3541 112.7162 14.97992037 53422","MEAN_MOTION_DDOT":"0.0000000000000","COUNTRY_CODE":"US","OBJECT_TYPE":"PAYLOAD"}];
